[{"OBJECT_NAME":"STARLINK-1596","OBJECT_ID":"2020-057AA","EPOCH":"2026-03-05T17:38:57.360768","MEAN_MOTION":15.43795048,"ECCENTRICITY":0.00051085,"INCLINATION":53.0428,"RA_OF_ASC_NODE":249.6042,"ARG_OF_PERICENTER":148.3028,"MEAN_ANOMALY":211.8286,"EPHEMERIS_TYPE":0,"CLASSIFICATION_TYPE":"U","NORAD_CAT_ID":46141,"ELEMENT_SET_NO":999,"REV_AT_EPOCH":30666,"BSTAR":0.0011661136,"MEAN_MOTION_DOT":0.00053593,"MEAN_MOTION_DDOT":0},{"OBJECT_NAME":"STARLINK-1597","OBJECT_ID":"2020-057AB","EPOCH":"2026-03-05T23:40:23.130912","MEAN_MOTION":15.55047922,"ECCENTRICITY":0.00080414,"INCLINATION":53.0501,"RA_OF_ASC_NODE":314.7723,"ARG_OF_PERICENTER":133.2527,"MEAN_ANOMALY":226.9156,"EPHEMERIS_TYPE":0,"CLASSIFICATION_TYPE":"U","NORAD_CAT_ID":46142,"ELEMENT_SET_NO":999,"REV_AT_EPOCH":30576,"BSTAR":0.0013967996,"MEAN_MOTION_DOT":0.000963,"MEAN_MOTION_DDOT":0},{"OBJECT_NAME":"STARLINK-1606","OBJECT_ID":"2020-057AD","EPOCH":"2026-03-06T08:00:01.000224","MEAN_MOTION":15.63244637,"ECCENTRICITY":0.00016381,"INCLINATION":53.0453,"RA_OF_ASC_NODE":272.88,"ARG_OF_PERICENTER":152.5349,"MEAN_ANOMALY":25.3755,"EPHEMERIS_TYPE":0,"CLASSIFICATION_TYPE":"U","NORAD_CAT_ID":46144,"ELEMENT_SET_NO":999,"REV_AT_EPOCH":588,"BSTAR":0.001698801,"MEAN_MOTION_DOT":0.00161212,"MEAN_MOTION_DDOT":0},{"OBJECT_NAME":"STARLINK-1608","OBJECT_ID":"2020-057AF","EPOCH":"2026-03-05T22:05:34.925568","MEAN_MOTION":15.30180473,"ECCENTRICITY":0.00011827,"INCLINATION":53.1609,"RA_OF_ASC_NODE":326.8068,"ARG_OF_PERICENTER":102.0814,"MEAN_ANOMALY":258.0319,"EPHEMERIS_TYPE":0,"CLASSIFICATION_TYPE":"U","NORAD_CAT_ID":46146,"ELEMENT_SET_NO":999,"REV_AT_EPOCH":30560,"BSTAR":-0.00012079964,"MEAN_MOTION_DOT":-3.933e-5,"MEAN_MOTION_DDOT":0},{"OBJECT_NAME":"STARLINK-1667","OBJECT_ID":"2020-057AQ","EPOCH":"2026-03-06T08:00:01.000224","MEAN_MOTION":15.63382081,"ECCENTRICITY":0.00059549,"INCLINATION":53.0239,"RA_OF_ASC_NODE":241.243,"ARG_OF_PERICENTER":161.851,"MEAN_ANOMALY":27.0356,"EPHEMERIS_TYPE":0,"CLASSIFICATION_TYPE":"U","NORAD_CAT_ID":46155,"ELEMENT_SET_NO":999,"REV_AT_EPOCH":593,"BSTAR":0.0024114649,"MEAN_MOTION_DOT":0.00232478,"MEAN_MOTION_DDOT":0},{"OBJECT_NAME":"STARLINK-1545","OBJECT_ID":"2020-057AR","EPOCH":"2026-03-06T08:00:01.000224","MEAN_MOTION":15.60598227,"ECCENTRICITY":0.00013762,"INCLINATION":53.0449,"RA_OF_ASC_NODE":274.8234,"ARG_OF_PERICENTER":65.4886,"MEAN_ANOMALY":231.3719,"EPHEMERIS_TYPE":0,"CLASSIFICATION_TYPE":"U","NORAD_CAT_ID":46156,"ELEMENT_SET_NO":999,"REV_AT_EPOCH":572,"BSTAR":0.0015965945,"MEAN_MOTION_DOT":0.0013625,"MEAN_MOTION_DDOT":0},{"OBJECT_NAME":"STARLINK-1587","OBJECT_ID":"2020-057AS","EPOCH":"2026-03-06T08:00:01.000224","MEAN_MOTION":15.93269739,"ECCENTRICITY":0.00040557,"INCLINATION":53.0313,"RA_OF_ASC_NODE":233.521,"ARG_OF_PERICENTER":275.8132,"MEAN_ANOMALY":275.3307,"EPHEMERIS_TYPE":0,"CLASSIFICATION_TYPE":"U","NORAD_CAT_ID":46157,"ELEMENT_SET_NO":999,"REV_AT_EPOCH":593,"BSTAR":0.0013030664,"MEAN_MOTION_DOT":0.00470072,"MEAN_MOTION_DDOT":9.8030246e-5},{"OBJECT_NAME":"STARLINK-1595","OBJECT_ID":"2020-057AU","EPOCH":"2026-03-06T01:36:13.683456","MEAN_MOTION":15.49315228,"ECCENTRICITY":0.00073749,"INCLINATION":53.0491,"RA_OF_ASC_NODE":314.0458,"ARG_OF_PERICENTER":108.327,"MEAN_ANOMALY":251.854,"EPHEMERIS_TYPE":0,"CLASSIFICATION_TYPE":"U","NORAD_CAT_ID":46159,"ELEMENT_SET_NO":999,"REV_AT_EPOCH":30704,"BSTAR":0.0018434225,"MEAN_MOTION_DOT":0.00103565,"MEAN_MOTION_DDOT":0},{"OBJECT_NAME":"STARLINK-1598","OBJECT_ID":"2020-057AV","EPOCH":"2026-03-06T01:12:12.134016","MEAN_MOTION":15.50293453,"ECCENTRICITY":0.00038635,"INCLINATION":53.0535,"RA_OF_ASC_NODE":301.0902,"ARG_OF_PERICENTER":180.3052,"MEAN_ANOMALY":179.7955,"EPHEMERIS_TYPE":0,"CLASSIFICATION_TYPE":"U","NORAD_CAT_ID":46160,"ELEMENT_SET_NO":999,"REV_AT_EPOCH":30721,"BSTAR":0.00090495613,"MEAN_MOTION_DOT":0.00052019,"MEAN_MOTION_DDOT":0},{"OBJECT_NAME":"STARLINK-1612","OBJECT_ID":"2020-057AZ","EPOCH":"2026-03-06T08:00:01.000224","MEAN_MOTION":15.793458,"ECCENTRICITY":0.00042201,"INCLINATION":53.0336,"RA_OF_ASC_NODE":228.6997,"ARG_OF_PERICENTER":227.9522,"MEAN_ANOMALY":325.8984,"EPHEMERIS_TYPE":0,"CLASSIFICATION_TYPE":"U","NORAD_CAT_ID":46164,"ELEMENT_SET_NO":999,"REV_AT_EPOCH":597,"BSTAR":0.00077320308,"MEAN_MOTION_DOT":0.00144109,"MEAN_MOTION_DDOT":0},{"OBJECT_NAME":"STARLINK-1626","OBJECT_ID":"2020-057BC","EPOCH":"2026-03-06T02:06:06.409152","MEAN_MOTION":15.53471097,"ECCENTRICITY":0.00081301,"INCLINATION":53.049,"RA_OF_ASC_NODE":311.6711,"ARG_OF_PERICENTER":119.5123,"MEAN_ANOMALY":240.6699,"EPHEMERIS_TYPE":0,"CLASSIFICATION_TYPE":"U","NORAD_CAT_ID":46167,"ELEMENT_SET_NO":999,"REV_AT_EPOCH":30582,"BSTAR":0.0018486409,"MEAN_MOTION_DOT":0.00120826,"MEAN_MOTION_DDOT":0},{"OBJECT_NAME":"STARLINK-1627","OBJECT_ID":"2020-057BD","EPOCH":"2026-03-06T04:46:48.761472","MEAN_MOTION":15.70587176,"ECCENTRICITY":0.00029483,"INCLINATION":53.0435,"RA_OF_ASC_NODE":242.0641,"ARG_OF_PERICENTER":58.7341,"MEAN_ANOMALY":301.3964,"EPHEMERIS_TYPE":0,"CLASSIFICATION_TYPE":"U","NORAD_CAT_ID":46168,"ELEMENT_SET_NO":999,"REV_AT_EPOCH":30680,"BSTAR":0.0011116026,"MEAN_MOTION_DOT":0.00141517,"MEAN_MOTION_DDOT":0},{"OBJECT_NAME":"STARLINK-1633","OBJECT_ID":"2020-057BG","EPOCH":"2026-03-06T00:00:02.000160","MEAN_MOTION":15.5805284,"ECCENTRICITY":0.00017355,"INCLINATION":53.0444,"RA_OF_ASC_NODE":277.0241,"ARG_OF_PERICENTER":271.1417,"MEAN_ANOMALY":196.8205,"EPHEMERIS_TYPE":0,"CLASSIFICATION_TYPE":"U","NORAD_CAT_ID":46171,"ELEMENT_SET_NO":999,"REV_AT_EPOCH":592,"BSTAR":0.002271587,"MEAN_MOTION_DOT":0.00177075,"MEAN_MOTION_DDOT":0},{"OBJECT_NAME":"STARLINK-1635","OBJECT_ID":"2020-057BH","EPOCH":"2026-03-06T08:00:01.000224","MEAN_MOTION":15.59335362,"ECCENTRICITY":0.00026164,"INCLINATION":53.0449,"RA_OF_ASC_NODE":273.9651,"ARG_OF_PERICENTER":8.192,"MEAN_ANOMALY":101.8949,"EPHEMERIS_TYPE":0,"CLASSIFICATION_TYPE":"U","NORAD_CAT_ID":46172,"ELEMENT_SET_NO":999,"REV_AT_EPOCH":593,"BSTAR":0.0017699699,"MEAN_MOTION_DOT":0.00144128,"MEAN_MOTION_DDOT":0},{"OBJECT_NAME":"STARLINK-1640","OBJECT_ID":"2020-057BJ","EPOCH":"2026-03-06T05:40:43.502304","MEAN_MOTION":15.52703207,"ECCENTRICITY":0.00090882,"INCLINATION":53.0518,"RA_OF_ASC_NODE":315.7456,"ARG_OF_PERICENTER":126.2728,"MEAN_ANOMALY":233.9122,"EPHEMERIS_TYPE":0,"CLASSIFICATION_TYPE":"U","NORAD_CAT_ID":46173,"ELEMENT_SET_NO":999,"REV_AT_EPOCH":30577,"BSTAR":0.002131332,"MEAN_MOTION_DOT":0.00135847,"MEAN_MOTION_DDOT":0},{"OBJECT_NAME":"STARLINK-1641","OBJECT_ID":"2020-057BK","EPOCH":"2026-03-05T21:53:34.380672","MEAN_MOTION":15.50068301,"ECCENTRICITY":5.537e-5,"INCLINATION":53.0499,"RA_OF_ASC_NODE":303.1158,"ARG_OF_PERICENTER":117.7047,"MEAN_ANOMALY":242.4018,"EPHEMERIS_TYPE":0,"CLASSIFICATION_TYPE":"U","NORAD_CAT_ID":46174,"ELEMENT_SET_NO":999,"REV_AT_EPOCH":30592,"BSTAR":0.00070312915,"MEAN_MOTION_DOT":0.00039924,"MEAN_MOTION_DDOT":0}]
