STARLINK-1596           
1 46141U 20057AA  26064.73538612  .00053593  00000+0  11661-2 0  9994
2 46141  53.0428 249.6042 0005108 148.3028 211.8286 15.43795048306662
STARLINK-1597           
1 46142U 20057AB  26064.98637883  .00096300  00000+0  13968-2 0  9997
2 46142  53.0501 314.7723 0008041 133.2527 226.9156 15.55047922305768
STARLINK-1606           
1 46144U 20057AD  26065.33334491  .00161212  00000+0  16988-2 0  9998
2 46144  53.0453 272.8800 0001638 152.5349  25.3755 15.63244637  5884
STARLINK-1608           
1 46146U 20057AF  26064.92054312 -.00003933  00000+0 -12080-3 0  9992
2 46146  53.1609 326.8068 0001182 102.0814 258.0319 15.30180473305602
STARLINK-1667           
1 46155U 20057AQ  26065.33334491  .00232478  00000+0  24115-2 0  9994
2 46155  53.0239 241.2430 0005954 161.8510  27.0356 15.63382081  5933
STARLINK-1545           
1 46156U 20057AR  26065.33334491  .00136250  00000+0  15966-2 0  9990
2 46156  53.0449 274.8234 0001376  65.4886 231.3719 15.60598227  5728
STARLINK-1587           
1 46157U 20057AS  26065.33334491  .00470072  98030-4  13031-2 0  9990
2 46157  53.0313 233.5210 0004055 275.8132 275.3307 15.93269739  5936
STARLINK-1595           
1 46159U 20057AU  26065.06682504  .00103565  00000+0  18434-2 0  9990
2 46159  53.0491 314.0458 0007374 108.3270 251.8540 15.49315228307045
STARLINK-1598           
1 46160U 20057AV  26065.05014044  .00052019  00000+0  90496-3 0  9995
2 46160  53.0535 301.0902 0003863 180.3052 179.7955 15.50293453307217
STARLINK-1612           
1 46164U 20057AZ  26065.33334491  .00144109  00000+0  77320-3 0  9994
2 46164  53.0336 228.6997 0004220 227.9522 325.8984 15.79345800  5975
STARLINK-1626           
1 46167U 20057BC  26065.08757418  .00120826  00000+0  18486-2 0  9994
2 46167  53.0490 311.6711 0008130 119.5123 240.6699 15.53471097305827
STARLINK-1627           
1 46168U 20057BD  26065.19917548  .00141517  00000+0  11116-2 0  9992
2 46168  53.0435 242.0641 0002948  58.7341 301.3964 15.70587176306807
STARLINK-1633           
1 46171U 20057BG  26065.00002315  .00177075  00000+0  22716-2 0  9999
2 46171  53.0444 277.0241 0001735 271.1417 196.8205 15.58052840  5928
STARLINK-1635           
1 46172U 20057BH  26065.33334491  .00144128  00000+0  17700-2 0  9999
2 46172  53.0449 273.9651 0002616   8.1920 101.8949 15.59335362  5936
STARLINK-1640           
1 46173U 20057BJ  26065.23661461  .00135847  00000+0  21313-2 0  9992
2 46173  53.0518 315.7456 0009088 126.2728 233.9122 15.52703207305775
STARLINK-1641           
1 46174U 20057BK  26064.91220348  .00039924  00000+0  70313-3 0  9996
2 46174  53.0499 303.1158 0000553 117.7047 242.4018 15.50068301305924
